ONEWEB-0620             
1 55161U 23004X   25238.55639338  .00000477  00000+0  13105-2 0  9998
2 55161  87.8773  79.8023 0001516  90.5860 269.5441 13.11415555127215
ONEWEB-0621             
1 55162U 23004Y   25238.58351245 -.00000436  00000+0 -12669-2 0  9991
2 55162  87.8780  79.7548 0001950  88.5605 271.5746 13.11416004127199
ONEWEB-0622             
1 55163U 23004Z   25238.51229719 -.00000416  00000+0 -12089-2 0  9999
2 55163  87.8774  79.7905 0002004 109.1880 250.9466 13.11417306127170
ONEWEB-0623             
1 55164U 23004AA  25238.53768696  .00000059  00000+0  11926-3 0  9995
2 55164  87.9025  64.5158 0002322 102.3362 257.8030 13.17648377128787
ONEWEB-0624             
1 55165U 23004AB  25238.41727293 -.00000208  00000+0 -60921-3 0  9998
2 55165  87.8865  49.2258 0001783  91.9778 268.1555 13.12943350129393
ONEWEB-0625             
1 55166U 23004AC  25238.52755644  .00000034  00000+0  54836-4 0  9996
2 55166  87.9024  64.5149 0001760  83.6138 276.5194 13.17650481128772
ONEWEB-0626             
1 55167U 23004AD  25238.51743458  .00000056  00000+0  11200-3 0  9997
2 55167  87.9026  64.5157 0001198  92.3289 267.7980 13.17649911128774
ONEWEB-0627             
1 55168U 23004AE  25238.58157046  .00000842  00000+0  21357-2 0  9993
2 55168  87.9025  64.5047 0002014 103.0430 257.0927 13.17643631128785
